{"type":"FeatureCollection","features":[{"type":"Feature","properties":{"name":"New South Wales","note":"mainland exterior, simplified ~650m, from rowanhogan/australian-states"},"geometry":{"type":"Polygon","coordinates":[[[151.169,-33.8361],[151.1438,-33.8292],[151.1693,-33.8393],[151.1802,-33.8362],[151.1743,-33.843],[151.1359,-33.8365],[151.1488,-33.8394],[151.1338,-33.8448],[151.0928,-33.8196],[151.0513,-33.8237],[151.084,-33.8221],[151.0752,-33.8327],[151.0809,-33.8458],[151.0832,-33.8279],[151.0938,-33.8244],[151.0898,-33.833],[151.0989,-33.8316],[151.0997,-33.8442],[151.1041,-33.8344],[151.1208,-33.8418],[151.1138,-33.854],[151.1223,-33.857],[151.1191,-33.8647],[151.1284,-33.861],[151.127,-33.8442],[151.1421,-33.8458],[151.1423,-33.8534],[151.154,-33.8421],[151.1648,-33.8552],[151.1445,-33.8632],[151.1412,-33.8698],[151.1509,-33.8723],[151.1855,-33.846],[151.1965,-33.8597],[151.1735,-33.8712],[151.1893,-33.8758],[151.194,-33.8624],[151.2015,-33.8732],[151.2002,-33.8554],[151.208,-33.8535],[151.2097,-33.861],[151.2227,-33.8592],[151.2206,-33.8691],[151.2299,-33.8583],[151.2318,-33.8748],[151.2523,-33.8637],[151.267,-33.8707],[151.2644,-33.8509],[151.2776,-33.8511],[151.2811,-33.8328],[151.2857,-33.892],[151.2743,-33.8936],[151.2714,-33.9142],[151.2576,-33.9225],[151.266,-33.968],[151.2519,-33.9647],[151.259,-33.9758],[151.2512,-33.9789],[151.2492,-34.0018],[151.2308,-33.9926],[151.226,-33.9767],[151.2089,-33.9822],[151.2201,-33.9672],[151.2075,-33.9698],[151.2111,-33.9618],[151.1923,-33.9542],[151.1927,-33.9739],[151.1861,-33.9524],[151.1817,-33.9679],[151.168,-33.9498],[151.1398,-34.0033],[151.1227,-34.0005],[151.1307,-33.984],[151.1183,-33.9905],[151.1095,-34.0227],[151.127,-34.0099],[151.1376,-34.0371],[151.1599,-34.0322],[151.1418,-34.0146],[151.1574,-34.0132],[151.1621,-34.0],[151.1786,-34.0128],[151.1583,-34.0145],[151.1596,-34.0233],[151.1963,-34.0212],[151.2064,-34.014],[151.1868,-34.0075],[151.2219,-34.0012],[151.2303,-34.0264],[151.2145,-34.0419],[151.1859,-34.0346],[151.1655,-34.0407],[151.1534,-34.0732],[151.1489,-34.0546],[151.1403,-34.0738],[151.1339,-34.0555],[151.1297,-34.0693],[151.1116,-34.0725],[151.1121,-34.0432],[151.1052,-34.0421],[151.1018,-34.059],[151.097,-34.0471],[151.0922,-34.0577],[151.077,-34.0539],[151.0888,-34.0655],[151.0611,-34.0644],[151.0575,-34.0736],[151.063,-34.0647],[151.0884,-34.0696],[151.0958,-34.058],[151.102,-34.0654],[151.1056,-34.0795],[151.0786,-34.0893],[151.1322,-34.076],[151.1242,-34.0922],[151.1352,-34.0823],[151.1332,-34.0735],[151.15,-34.0837],[151.169,-34.0749],[151.1718,-34.0865],[151.1279,-34.1379],[151.0453,-34.1862],[150.9887,-34.2319],[150.928,-34.3166],[150.9194,-34.3585],[150.9313,-34.3688],[150.9021,-34.4077],[150.9108,-34.4213],[150.9011,-34.4593],[150.9098,-34.4648],[150.8988,-34.462],[150.8949,-34.451],[150.8841,-34.4577],[150.9079,-34.4755],[150.9136,-34.4648],[150.9219,-34.4939],[150.8914,-34.5064],[150.8746,-34.5383],[150.8627,-34.5291],[150.8735,-34.4988],[150.8866,-34.4916],[150.8324,-34.4863],[150.8376,-34.5005],[150.8117,-34.5074],[150.8195,-34.5176],[150.8126,-34.5303],[150.8076,-34.5251],[150.8135,-34.5342],[150.7968,-34.5462],[150.8104,-34.5493],[150.7953,-34.5552],[150.8042,-34.5614],[150.8323,-34.5569],[150.8376,-34.5427],[150.862,-34.5375],[150.8737,-34.5444],[150.8684,-34.5702],[150.8751,-34.5894],[150.9045,-34.597],[150.8559,-34.6146],[150.8566,-34.646],[150.8655,-34.6489],[150.8548,-34.6634],[150.8647,-34.6719],[150.8551,-34.6764],[150.8609,-34.6881],[150.8333,-34.7386],[150.837,-34.7545],[150.8251,-34.7825],[150.8115,-34.773],[150.7821,-34.7913],[150.7495,-34.8552],[150.7515,-34.8906],[150.76,-34.9004],[150.7709,-34.8958],[150.7686,-34.926],[150.7858,-34.9304],[150.7763,-34.9478],[150.7847,-34.9866],[150.8102,-35.0125],[150.8214,-35.0147],[150.8298,-35.0029],[150.8497,-35.0129],[150.8316,-35.0412],[150.843,-35.0506],[150.8338,-35.0744],[150.8058,-35.0944],[150.7863,-35.0725],[150.7762,-35.083],[150.7757,-35.0541],[150.7871,-35.0362],[150.7673,-35.0152],[150.7783,-35.0024],[150.751,-34.9908],[150.7263,-34.9967],[150.7284,-35.0075],[150.6921,-35.0141],[150.6711,-35.0372],[150.6795,-35.0493],[150.6768,-35.069],[150.698,-35.0711],[150.6916,-35.0832],[150.7016,-35.1229],[150.6611,-35.1178],[150.6471,-35.1017],[150.6383,-35.1167],[150.6142,-35.1165],[150.6206,-35.1062],[150.5952,-35.1015],[150.5871,-35.0883],[150.5769,-35.0884],[150.5795,-35.0992],[150.563,-35.0937],[150.5495,-35.103],[150.5655,-35.1025],[150.5687,-35.1129],[150.5448,-35.1229],[150.5989,-35.1272],[150.5859,-35.1382],[150.6051,-35.1562],[150.6013,-35.1701],[150.5912,-35.1725],[150.5974,-35.1901],[150.5728,-35.193],[150.5405,-35.2157],[150.5302,-35.2351],[150.5452,-35.2484],[150.478,-35.2918],[150.4719,-35.3165],[150.4873,-35.325],[150.4759,-35.3303],[150.4756,-35.3464],[150.485,-35.3533],[150.4749,-35.3566],[150.4925,-35.3663],[150.4521,-35.39],[150.4491,-35.4068],[150.4231,-35.421],[150.4107,-35.4365],[150.4157,-35.4454],[150.3928,-35.4646],[150.3909,-35.4984],[150.4016,-35.5062],[150.4063,-35.5339],[150.385,-35.5461],[150.3869,-35.5627],[150.3464,-35.5879],[150.3456,-35.6043],[150.3226,-35.6135],[150.326,-35.6372],[150.2993,-35.6474],[150.3066,-35.6861],[150.2991,-35.6837],[150.2974,-35.6961],[150.2809,-35.7033],[150.2766,-35.7235],[150.2654,-35.7265],[150.234,-35.7029],[150.2122,-35.7118],[150.2103,-35.7024],[150.1773,-35.7031],[150.2145,-35.7379],[150.2119,-35.76],[150.2349,-35.7718],[150.2301,-35.8011],[150.2372,-35.8017],[150.2242,-35.8087],[150.2308,-35.8184],[150.2249,-35.8278],[150.2353,-35.8355],[150.1867,-35.8331],[150.1777,-35.8502],[150.1914,-35.8605],[150.1692,-35.8625],[150.1502,-35.8911],[150.1521,-35.9078],[150.1618,-35.9087],[150.1511,-35.9789],[150.1541,-35.9919],[150.1643,-35.9936],[150.1574,-36.008],[150.1646,-36.013],[150.1345,-36.0659],[150.134,-36.0902],[150.1415,-36.0944],[150.1243,-36.1419],[150.1486,-36.267],[150.1308,-36.2889],[150.1397,-36.3049],[150.0898,-36.354],[150.0668,-36.3985],[150.0676,-36.4194],[150.0848,-36.4292],[150.0548,-36.4881],[150.0622,-36.5065],[150.0555,-36.5402],[150.0683,-36.5541],[149.9999,-36.665],[149.9971,-36.6922],[149.9828,-36.7023],[149.9793,-36.7222],[149.9919,-36.7256],[149.9772,-36.7696],[149.9406,-36.8117],[149.9344,-36.8441],[149.95,-36.8554],[149.9302,-36.874],[149.9296,-36.8947],[149.9381,-36.9025],[149.9197,-36.8954],[149.9048,-36.9146],[149.9134,-36.9446],[149.9459,-36.9491],[149.9335,-36.9593],[149.9267,-36.9921],[149.9308,-37.0078],[149.9477,-37.0176],[149.9399,-37.0312],[149.9447,-37.054],[149.9234,-37.0463],[149.9099,-37.0621],[149.9148,-37.0761],[149.9019,-37.0692],[149.8725,-37.0832],[149.8783,-37.101],[149.8935,-37.0971],[149.9114,-37.1118],[149.9297,-37.1101],[149.9262,-37.1003],[149.9538,-37.1009],[149.9523,-37.1087],[149.9713,-37.1178],[149.969,-37.1257],[149.9876,-37.1411],[150.0049,-37.1413],[150.0095,-37.1613],[150.003,-37.1685],[150.0209,-37.1854],[150.0155,-37.2011],[150.0234,-37.212],[150.0108,-37.2118],[150.0277,-37.2225],[150.0518,-37.2623],[150.013,-37.2555],[149.9868,-37.2399],[149.966,-37.2498],[149.944,-37.2777],[149.9697,-37.3097],[149.9722,-37.3285],[149.9498,-37.3747],[149.9566,-37.4235],[149.9754,-37.4455],[149.9767,-37.5051],[148.1949,-36.7963],[148.1825,-36.8049],[148.1567,-36.79],[148.1268,-36.7965],[148.1202,-36.8061],[148.1089,-36.8009],[148.098,-36.7872],[148.1327,-36.7508],[148.1307,-36.7347],[148.1702,-36.7128],[148.2112,-36.6505],[148.2195,-36.6196],[148.2142,-36.6105],[148.2028,-36.6119],[148.2176,-36.5982],[148.1903,-36.5849],[148.1901,-36.5766],[148.1607,-36.5798],[148.1505,-36.5583],[148.1334,-36.5669],[148.1243,-36.5506],[148.1398,-36.5254],[148.1176,-36.4955],[148.1264,-36.4853],[148.1191,-36.4819],[148.1247,-36.4647],[148.0876,-36.4519],[148.0803,-36.4221],[148.0599,-36.4155],[148.0582,-36.4008],[148.0376,-36.3902],[148.046,-36.367],[148.0378,-36.3662],[148.0589,-36.32],[148.035,-36.3106],[148.0439,-36.2995],[148.0352,-36.2923],[148.0387,-36.2592],[148.0261,-36.223],[148.0406,-36.207],[148.0218,-36.1765],[148.0348,-36.163],[148.0229,-36.1535],[148.0352,-36.1525],[148.0377,-36.1408],[148.0024,-36.1401],[148.0005,-36.1244],[147.9907,-36.1213],[147.9992,-36.0987],[147.9802,-36.0865],[147.9824,-36.0779],[147.9929,-36.0811],[147.9997,-36.0462],[147.9913,-36.0526],[147.9818,-36.0403],[147.9732,-36.0463],[147.9743,-36.0385],[147.965,-36.0469],[147.959,-36.041],[147.9343,-36.0476],[147.924,-36.0425],[147.9316,-36.0353],[147.9115,-36.0266],[147.9123,-35.9952],[147.8829,-36.0018],[147.8731,-35.991],[147.8175,-35.9797],[147.8062,-35.9651],[147.7768,-35.9686],[147.7668,-35.9642],[147.7733,-35.9589],[147.7187,-35.9455],[147.7084,-35.9285],[147.68,-35.9444],[147.6468,-35.946],[147.6378,-35.9621],[147.6014,-35.9791],[147.5919,-35.9699],[147.5491,-35.9646],[147.5477,-35.9786],[147.5589,-35.9725],[147.584,-35.9846],[147.5519,-36.0041],[147.5214,-35.9869],[147.5149,-35.9764],[147.5253,-35.9633],[147.5114,-35.9624],[147.4941,-35.9435],[147.4641,-35.9441],[147.4507,-35.9608],[147.4046,-35.9435],[147.3903,-35.9493],[147.3923,-35.9735],[147.3582,-35.9913],[147.3457,-36.0188],[147.3528,-36.0317],[147.3199,-36.061],[147.2852,-36.0394],[147.2424,-36.0385],[147.2063,-36.0501],[147.1645,-36.0308],[147.1444,-36.0378],[147.1274,-36.018],[147.1234,-35.9945],[147.1119,-36.0009],[147.1163,-36.0076],[147.1068,-36.0048],[147.1092,-36.0125],[147.0981,-36.0102],[147.1064,-36.0165],[147.0921,-36.0277],[147.1037,-36.0329],[147.0916,-36.0439],[147.0954,-36.0527],[147.0618,-36.0662],[147.053,-36.1079],[147.0423,-36.1043],[147.0341,-36.1152],[147.0228,-36.0999],[147.0135,-36.1047],[147.0163,-36.0898],[147.0074,-36.0837],[146.9813,-36.0949],[146.9568,-36.0781],[146.9525,-36.1108],[146.9437,-36.116],[146.9268,-36.0972],[146.9241,-36.1083],[146.9078,-36.1113],[146.9069,-36.0849],[146.8806,-36.0875],[146.873,-36.0737],[146.825,-36.0887],[146.8255,-36.0708],[146.8163,-36.0744],[146.8039,-36.0552],[146.7962,-36.0651],[146.7628,-36.0595],[146.7623,-36.0517],[146.7499,-36.0613],[146.7529,-36.0421],[146.7301,-36.0447],[146.7316,-36.0237],[146.7071,-36.0361],[146.6896,-36.0304],[146.695,-36.0343],[146.6858,-36.0406],[146.6754,-36.0286],[146.6802,-36.0224],[146.656,-36.0263],[146.6509,-36.0077],[146.6143,-35.9965],[146.6125,-35.9729],[146.5841,-35.975],[146.584,-35.9839],[146.5603,-35.9764],[146.5496,-35.9925],[146.5323,-35.9843],[146.5197,-35.9606],[146.5026,-35.9582],[146.4925,-35.985],[146.5021,-35.9832],[146.4997,-35.9909],[146.4674,-35.9842],[146.47,-35.9762],[146.4546,-35.9622],[146.4447,-35.978],[146.4372,-35.967],[146.4217,-35.9658],[146.4252,-35.973],[146.403,-35.9888],[146.3991,-36.0072],[146.3806,-36.0129],[146.3876,-36.0356],[146.3687,-36.0509],[146.3389,-36.0264],[146.325,-36.0335],[146.3291,-36.0431],[146.283,-36.0415],[146.2931,-36.0295],[146.2822,-36.0262],[146.2911,-36.0202],[146.2788,-36.0159],[146.2829,-36.011],[146.275,-36.0124],[146.2729,-36.0266],[146.2572,-36.0121],[146.243,-36.0288],[146.2112,-36.0389],[146.2116,-36.0286],[146.2047,-36.0392],[146.1992,-36.0275],[146.186,-36.0421],[146.1731,-36.0193],[146.1314,-36.0194],[146.1406,-36.009],[146.1348,-36.0025],[146.1187,-36.018],[146.1077,-36.0144],[146.1124,-36.0068],[146.0915,-36.0095],[146.0922,-36.0213],[146.0756,-36.0182],[146.0736,-36.0096],[146.0593,-36.0145],[146.0523,-35.9955],[146.0484,-36.0032],[146.0315,-35.9947],[146.0161,-36.007],[145.9721,-36.0157],[145.9713,-36.0057],[145.9583,-36.007],[145.9648,-35.9968],[145.9457,-35.9838],[145.9443,-35.9665],[145.9537,-35.9615],[145.928,-35.9739],[145.9258,-35.9646],[145.9029,-35.9689],[145.9103,-35.956],[145.9027,-35.9525],[145.854,-35.9599],[145.848,-35.9687],[145.8586,-35.9748],[145.8455,-35.9735],[145.8486,-35.9809],[145.84,-35.9832],[145.8275,-35.9754],[145.8117,-35.9918],[145.7934,-35.9828],[145.7927,-35.9728],[145.777,-35.9726],[145.7782,-35.9602],[145.7461,-35.9642],[145.731,-35.9587],[145.7342,-35.9513],[145.7168,-35.9506],[145.7263,-35.9423],[145.7203,-35.9344],[145.6973,-35.9365],[145.6982,-35.921],[145.6859,-35.9306],[145.674,-35.9259],[145.6791,-35.9168],[145.6691,-35.9196],[145.6296,-35.8801],[145.6203,-35.8839],[145.6281,-35.8754],[145.6149,-35.8726],[145.6263,-35.8628],[145.6017,-35.8679],[145.6011,-35.875],[145.598,-35.8615],[145.5868,-35.8612],[145.5932,-35.8491],[145.558,-35.8282],[145.5628,-35.8134],[145.5388,-35.8218],[145.5354,-35.802],[145.5225,-35.8185],[145.4721,-35.8092],[145.4634,-35.8263],[145.4507,-35.8214],[145.4423,-35.8356],[145.4126,-35.8306],[145.4106,-35.8486],[145.3554,-35.8671],[145.3245,-35.8507],[145.2965,-35.8606],[145.2727,-35.8452],[145.2583,-35.8506],[145.2607,-35.8354],[145.2462,-35.8303],[145.225,-35.8322],[145.2228,-35.8424],[145.1898,-35.8343],[145.1535,-35.843],[145.1592,-35.8311],[145.1366,-35.8343],[145.1277,-35.8207],[145.1264,-35.8297],[145.1141,-35.8205],[145.0919,-35.836],[145.09,-35.8255],[145.0497,-35.8337],[145.019,-35.8566],[144.9923,-35.8523],[144.9682,-35.8655],[144.975,-35.8838],[144.9489,-35.9316],[144.9574,-35.961],[144.931,-35.9685],[144.9236,-35.9888],[144.9618,-36.0182],[144.9678,-36.0421],[144.9859,-36.0565],[144.9819,-36.0723],[144.9483,-36.0829],[144.9326,-36.067],[144.8635,-36.0591],[144.8614,-36.0718],[144.8575,-36.0652],[144.8565,-36.0736],[144.8472,-36.0729],[144.8419,-36.1006],[144.8199,-36.1079],[144.8099,-36.1024],[144.8163,-36.1099],[144.8064,-36.1075],[144.8134,-36.1139],[144.8079,-36.1236],[144.7948,-36.1173],[144.7771,-36.1298],[144.7719,-36.1161],[144.7482,-36.1217],[144.7406,-36.1076],[144.7264,-36.1178],[144.7174,-36.1121],[144.7257,-36.0894],[144.6839,-36.0951],[144.689,-36.0614],[144.655,-36.0753],[144.6532,-36.0532],[144.6327,-36.0481],[144.6263,-36.0618],[144.6183,-36.0597],[144.6282,-36.0653],[144.6177,-36.0772],[144.6084,-36.0636],[144.6155,-36.0316],[144.6088,-36.0418],[144.5825,-36.0381],[144.5864,-36.0272],[144.5711,-36.0241],[144.5634,-36.0078],[144.5577,-36.0141],[144.5537,-36.003],[144.5161,-35.9954],[144.5211,-35.9703],[144.5011,-35.9706],[144.5019,-35.958],[144.494,-35.9686],[144.4812,-35.9586],[144.4876,-35.9495],[144.4667,-35.9459],[144.4666,-35.9336],[144.447,-35.9355],[144.4234,-35.906],[144.417,-35.9105],[144.4244,-35.9002],[144.4079,-35.904],[144.4182,-35.8932],[144.4036,-35.8807],[144.4114,-35.859],[144.3986,-35.8627],[144.3903,-35.8506],[144.3814,-35.8524],[144.3843,-35.8419],[144.3729,-35.8381],[144.382,-35.8332],[144.3722,-35.8319],[144.3841,-35.8196],[144.3648,-35.8209],[144.3775,-35.8143],[144.3667,-35.8113],[144.3768,-35.793],[144.3623,-35.7958],[144.3491,-35.7671],[144.3187,-35.7666],[144.3278,-35.7526],[144.2953,-35.7544],[144.2961,-35.7371],[144.2645,-35.7514],[144.2482,-35.721],[144.216,-35.7065],[144.2216,-35.694],[144.2135,-35.6867],[144.1951,-35.6859],[144.1868,-35.6704],[144.1624,-35.6715],[144.1526,-35.6427],[144.1315,-35.6408],[144.105,-35.5908],[144.0623,-35.5768],[144.0392,-35.5493],[144.0127,-35.5541],[144.0096,-35.5633],[143.9899,-35.5547],[143.9968,-35.5363],[143.9745,-35.5323],[143.9624,-35.514],[143.9725,-35.5092],[143.9701,-35.5001],[143.9334,-35.5066],[143.935,-35.4993],[143.9062,-35.5],[143.8714,-35.4778],[143.8588,-35.48],[143.8554,-35.4618],[143.813,-35.4463],[143.818,-35.4375],[143.7901,-35.4225],[143.7629,-35.4231],[143.7688,-35.4018],[143.751,-35.3878],[143.7092,-35.3925],[143.7117,-35.3847],[143.7033,-35.3894],[143.7023,-35.3779],[143.6931,-35.3839],[143.6845,-35.3684],[143.6679,-35.3716],[143.6681,-35.3857],[143.6571,-35.385],[143.6423,-35.401],[143.6294,-35.3924],[143.633,-35.3835],[143.6204,-35.3877],[143.616,-35.3689],[143.603,-35.3654],[143.5984,-35.3521],[143.5621,-35.3372],[143.569,-35.3024],[143.5779,-35.3032],[143.5909,-35.2817],[143.5835,-35.265],[143.5717,-35.268],[143.5637,-35.2435],[143.581,-35.22],[143.5708,-35.2069],[143.547,-35.2062],[143.5483,-35.2138],[143.5292,-35.2199],[143.5183,-35.2116],[143.4715,-35.2193],[143.4495,-35.1891],[143.3947,-35.1924],[143.387,-35.1835],[143.3918,-35.1726],[143.3819,-35.1731],[143.3906,-35.1451],[143.362,-35.1169],[143.3608,-35.103],[143.3481,-35.1054],[143.3409,-35.0957],[143.3374,-35.0804],[143.3455,-35.0741],[143.3391,-35.0682],[143.3508,-35.0647],[143.3377,-35.0613],[143.3373,-35.0486],[143.3305,-35.0539],[143.3365,-35.0432],[143.3221,-35.0367],[143.336,-35.0374],[143.3381,-35.0109],[143.3188,-34.9929],[143.3177,-34.9526],[143.322,-34.9423],[143.3395,-34.9436],[143.3428,-34.9325],[143.3405,-34.9137],[143.3214,-34.8885],[143.3417,-34.8811],[143.3384,-34.8703],[143.3526,-34.8582],[143.3452,-34.8535],[143.355,-34.846],[143.3412,-34.8463],[143.3596,-34.8169],[143.3476,-34.8073],[143.3479,-34.7916],[143.3183,-34.7908],[143.3088,-34.7799],[143.2943,-34.7908],[143.2843,-34.7852],[143.2869,-34.795],[143.2767,-34.7923],[143.273,-34.7764],[143.2521,-34.7728],[143.274,-34.7527],[143.2489,-34.7579],[143.2407,-34.7455],[143.2244,-34.7587],[143.2138,-34.7385],[143.2188,-34.7295],[143.2,-34.7334],[143.1992,-34.717],[143.1793,-34.7173],[143.181,-34.7095],[143.1654,-34.7181],[143.1617,-34.6979],[143.1474,-34.7148],[143.1335,-34.7006],[143.1178,-34.7031],[143.1278,-34.6927],[143.1072,-34.7015],[143.1116,-34.6871],[143.1213,-34.6874],[143.1125,-34.6808],[143.0928,-34.7013],[143.0762,-34.696],[143.0708,-34.6784],[143.0548,-34.6989],[143.0404,-34.6859],[143.0395,-34.7026],[143.0325,-34.6829],[143.0102,-34.6937],[143.0173,-34.6737],[142.9946,-34.6739],[142.9893,-34.6626],[142.9753,-34.6709],[142.9824,-34.6827],[142.9727,-34.6952],[142.9593,-34.665],[142.9489,-34.6697],[142.9223,-34.6565],[142.9238,-34.6479],[142.9015,-34.655],[142.8933,-34.6657],[142.9002,-34.6715],[142.8868,-34.6798],[142.8865,-34.6721],[142.8606,-34.6652],[142.8719,-34.6503],[142.8552,-34.6395],[142.8682,-34.6273],[142.8525,-34.6192],[142.8407,-34.6258],[142.8231,-34.6003],[142.8185,-34.6124],[142.805,-34.6084],[142.8103,-34.5891],[142.7979,-34.5976],[142.7877,-34.5902],[142.8101,-34.5609],[142.7914,-34.5464],[142.7825,-34.5649],[142.77,-34.5689],[142.7841,-34.5804],[142.7483,-34.5768],[142.7469,-34.5878],[142.7634,-34.5904],[142.7592,-34.6001],[142.7432,-34.6028],[142.7236,-34.5923],[142.7,-34.5994],[142.704,-34.6135],[142.6895,-34.6183],[142.7088,-34.6227],[142.6892,-34.6525],[142.7086,-34.6622],[142.7108,-34.6758],[142.6841,-34.6709],[142.6789,-34.6808],[142.6911,-34.7014],[142.6845,-34.7141],[142.6994,-34.7245],[142.6786,-34.7223],[142.6867,-34.7339],[142.679,-34.7392],[142.6614,-34.7217],[142.6373,-34.735],[142.6183,-34.7288],[142.6205,-34.7571],[142.6464,-34.7633],[142.6393,-34.7803],[142.6168,-34.7855],[142.5672,-34.7669],[142.5567,-34.7754],[142.5336,-34.7531],[142.5242,-34.7594],[142.5074,-34.7488],[142.5117,-34.7409],[142.4996,-34.7391],[142.5189,-34.7037],[142.4991,-34.7],[142.5142,-34.6909],[142.4986,-34.681],[142.4971,-34.6694],[142.4716,-34.6669],[142.4836,-34.6364],[142.4523,-34.6335],[142.4683,-34.6129],[142.4613,-34.6066],[142.4713,-34.5927],[142.4584,-34.5876],[142.4727,-34.5767],[142.468,-34.5643],[142.4488,-34.5595],[142.4587,-34.5815],[142.4516,-34.5843],[142.4302,-34.5748],[142.4261,-34.5623],[142.4077,-34.568],[142.4056,-34.5415],[142.3902,-34.5491],[142.3677,-34.5304],[142.4006,-34.5227],[142.3749,-34.5153],[142.3947,-34.4935],[142.3777,-34.4914],[142.3697,-34.5038],[142.3596,-34.4988],[142.3643,-34.4847],[142.3842,-34.4781],[142.3793,-34.4667],[142.3533,-34.4696],[142.3679,-34.4354],[142.3599,-34.4319],[142.3645,-34.4227],[142.3518,-34.4223],[142.3607,-34.4118],[142.351,-34.3966],[142.3739,-34.3882],[142.3681,-34.3706],[142.3783,-34.3648],[142.3635,-34.3622],[142.3898,-34.3628],[142.3845,-34.3469],[142.3966,-34.3377],[142.3677,-34.3269],[142.3309,-34.3394],[142.2839,-34.3266],[142.284,-34.3108],[142.2989,-34.3057],[142.2861,-34.2965],[142.2359,-34.307],[142.2325,-34.2967],[142.2488,-34.285],[142.249,-34.2651],[142.2323,-34.255],[142.2436,-34.2458],[142.2353,-34.2237],[142.2441,-34.2109],[142.2365,-34.2038],[142.2331,-34.2144],[142.2207,-34.182],[142.1836,-34.1757],[142.1673,-34.1835],[142.1665,-34.1714],[142.1593,-34.1715],[142.1666,-34.1531],[142.1483,-34.1487],[142.138,-34.1601],[142.1201,-34.1569],[142.1196,-34.1749],[142.0828,-34.1735],[142.0653,-34.1506],[142.0756,-34.1314],[142.0276,-34.123],[142.0239,-34.1151],[142.0423,-34.1053],[142.0375,-34.0994],[142.0129,-34.1052],[142.0222,-34.1249],[141.9777,-34.1127],[141.9704,-34.1361],[141.945,-34.1195],[141.9341,-34.1383],[141.9226,-34.1146],[141.9035,-34.1112],[141.8847,-34.115],[141.8888,-34.1244],[141.8766,-34.1374],[141.8507,-34.1243],[141.8414,-34.1325],[141.7864,-34.1117],[141.7769,-34.1169],[141.7779,-34.1018],[141.7569,-34.1121],[141.7618,-34.0975],[141.7463,-34.1034],[141.7315,-34.091],[141.719,-34.1149],[141.7083,-34.0964],[141.6774,-34.1012],[141.6327,-34.1215],[141.628,-34.1454],[141.6118,-34.139],[141.6185,-34.1563],[141.5839,-34.152],[141.603,-34.1623],[141.5894,-34.1774],[141.6049,-34.1839],[141.6033,-34.1912],[141.5897,-34.1869],[141.5839,-34.1988],[141.5605,-34.1909],[141.5477,-34.2008],[141.5335,-34.1914],[141.5339,-34.2107],[141.5101,-34.2165],[141.5061,-34.2105],[141.5186,-34.2032],[141.5067,-34.1906],[141.5187,-34.1809],[141.4968,-34.1555],[141.4445,-34.168],[141.4328,-34.1599],[141.4339,-34.1459],[141.4074,-34.1464],[141.4082,-34.1279],[141.3881,-34.1347],[141.3816,-34.1221],[141.3697,-34.1202],[141.3688,-34.1271],[141.359,-34.1107],[141.3249,-34.1388],[141.3259,-34.1269],[141.3135,-34.1249],[141.3175,-34.1124],[141.2837,-34.1039],[141.2596,-34.0781],[141.2425,-34.0873],[141.2418,-34.0613],[141.2285,-34.0737],[141.2221,-34.0617],[141.2059,-34.0617],[141.185,-34.092],[141.1747,-34.0733],[141.1537,-34.0821],[141.1532,-34.0689],[141.1438,-34.0678],[141.1531,-34.0545],[141.1203,-34.0649],[141.0942,-34.0507],[141.0873,-34.0572],[141.0976,-34.07],[141.0892,-34.0767],[141.0849,-34.0623],[141.072,-34.0629],[141.0656,-34.0501],[141.0425,-34.0611],[141.0361,-34.0361],[141.0243,-34.0599],[141.0019,-34.0393],[141.0124,-34.0247],[141.003,-34.0225],[140.9993,-28.9991],[148.9583,-28.9991],[149.0092,-28.9569],[149.0327,-28.956],[149.0587,-28.9104],[149.064,-28.8886],[149.0553,-28.8841],[149.0801,-28.8584],[149.0808,-28.8418],[149.0971,-28.8317],[149.1282,-28.8353],[149.1434,-28.8222],[149.1398,-28.8072],[149.1792,-28.803],[149.1888,-28.7751],[149.225,-28.7645],[149.2469,-28.7389],[149.2623,-28.7343],[149.2692,-28.7435],[149.2971,-28.7099],[149.318,-28.7141],[149.359,-28.6843],[149.3874,-28.6958],[149.3939,-28.6773],[149.423,-28.6552],[149.417,-28.6513],[149.4261,-28.6501],[149.4283,-28.6292],[149.443,-28.6203],[149.4395,-28.6121],[149.4526,-28.5949],[149.4749,-28.5939],[149.503,-28.5744],[149.5139,-28.5817],[149.5879,-28.5728],[149.6107,-28.6009],[149.6255,-28.5933],[149.6423,-28.5992],[149.6479,-28.6121],[149.6607,-28.6093],[149.674,-28.6242],[149.6667,-28.6319],[149.7031,-28.6337],[149.7099,-28.6203],[149.7039,-28.6165],[149.7212,-28.6092],[149.745,-28.6184],[149.7549,-28.6094],[149.784,-28.6141],[149.8114,-28.6058],[149.8193,-28.6158],[149.8304,-28.6037],[149.8449,-28.6105],[149.8623,-28.6022],[149.8991,-28.6219],[149.9174,-28.6081],[149.9419,-28.6179],[149.9506,-28.608],[149.977,-28.6135],[150.0161,-28.5807],[150.0487,-28.5892],[150.0733,-28.5766],[150.0799,-28.5844],[150.0929,-28.5786],[150.0919,-28.5642],[150.1386,-28.5653],[150.1523,-28.5502],[150.1541,-28.5572],[150.1692,-28.5506],[150.1716,-28.5639],[150.1827,-28.5563],[150.1779,-28.5635],[150.1867,-28.5728],[150.1925,-28.5667],[150.2123,-28.5742],[150.2291,-28.5677],[150.2304,-28.5557],[150.2388,-28.5597],[150.2361,-28.5538],[150.2896,-28.5372],[150.3276,-28.571],[150.3513,-28.5753],[150.3525,-28.5878],[150.3697,-28.5985],[150.3638,-28.6075],[150.37,-28.6207],[150.3875,-28.6254],[150.3879,-28.6339],[150.4018,-28.6273],[150.414,-28.6339],[150.4152,-28.6508],[150.4456,-28.6651],[150.5148,-28.6618],[150.525,-28.6543],[150.5392,-28.6605],[150.527,-28.6689],[150.5441,-28.6715],[150.5541,-28.6531],[150.5614,-28.6618],[150.5806,-28.6555],[150.6002,-28.6708],[150.6258,-28.669],[150.6325,-28.6766],[150.6734,-28.6502],[150.6817,-28.6614],[150.7283,-28.6345],[150.7523,-28.6335],[150.8188,-28.6573],[150.8193,-28.6666],[150.8484,-28.6731],[150.874,-28.6938],[150.9064,-28.6877],[150.9309,-28.7055],[150.9382,-28.7309],[151.0106,-28.7408],[151.0283,-28.7614],[151.029,-28.7705],[151.0193,-28.772],[151.0248,-28.7931],[151.0419,-28.7992],[151.0374,-28.8276],[151.0453,-28.8445],[151.0548,-28.8494],[151.0832,-28.8344],[151.1028,-28.8364],[151.133,-28.8602],[151.2002,-28.8843],[151.2088,-28.9015],[151.2347,-28.9047],[151.2439,-28.9243],[151.2748,-28.9389],[151.2823,-28.9541],[151.2721,-28.9732],[151.2826,-28.9806],[151.2764,-28.987],[151.284,-29.0059],[151.2711,-29.0303],[151.2889,-29.0503],[151.2755,-29.0778],[151.2796,-29.1008],[151.3155,-29.1345],[151.3088,-29.1475],[151.3148,-29.1655],[151.3393,-29.1773],[151.3938,-29.1779],[151.4106,-29.1526],[151.4517,-29.1269],[151.463,-29.0989],[151.5023,-29.0708],[151.4915,-29.0562],[151.4982,-29.0199],[151.5361,-28.9806],[151.5456,-28.953],[151.5771,-28.945],[151.6096,-28.9233],[151.6347,-28.9292],[151.6444,-28.9168],[151.6748,-28.9076],[151.7065,-28.8718],[151.7339,-28.8716],[151.7435,-28.9186],[151.7727,-28.9383],[151.7702,-28.9558],[151.7778,-28.9599],[151.8064,-28.9446],[151.8138,-28.9594],[151.8322,-28.9598],[151.8379,-28.9165],[151.8494,-28.9078],[151.9004,-28.915],[151.916,-28.9293],[151.9682,-28.9166],[151.9976,-28.8955],[152.0011,-28.9097],[152.0097,-28.9077],[152.0381,-28.8647],[152.0369,-28.8518],[152.026,-28.8583],[152.0151,-28.8506],[152.0373,-28.8192],[152.0427,-28.7316],[152.076,-28.7082],[152.0664,-28.681],[152.0526,-28.6819],[152.0392,-28.6644],[152.0102,-28.665],[151.9908,-28.6244],[151.986,-28.5815],[151.9577,-28.5634],[151.9556,-28.5189],[151.9829,-28.5034],[151.989,-28.5256],[152.0169,-28.5253],[152.067,-28.4856],[152.0702,-28.468],[152.1211,-28.4627],[152.1605,-28.4331],[152.1903,-28.4339],[152.2172,-28.4492],[152.2676,-28.39],[152.2884,-28.3932],[152.3097,-28.3632],[152.3862,-28.3686],[152.4173,-28.3331],[152.4095,-28.3157],[152.4146,-28.2981],[152.4448,-28.2988],[152.4636,-28.2594],[152.5086,-28.2492],[152.5342,-28.2626],[152.526,-28.3062],[152.5686,-28.3236],[152.5792,-28.339],[152.6017,-28.3074],[152.6003,-28.2838],[152.6145,-28.2696],[152.6383,-28.311],[152.6672,-28.3118],[152.6793,-28.3304],[152.7229,-28.3441],[152.7511,-28.3639],[152.7755,-28.3466],[152.8042,-28.3536],[152.8311,-28.3203],[152.88,-28.3096],[152.9339,-28.3383],[152.9726,-28.3319],[153.0082,-28.3417],[153.0461,-28.3395],[153.1088,-28.3575],[153.1299,-28.3307],[153.1247,-28.3186],[153.1685,-28.2942],[153.1611,-28.2798],[153.1749,-28.2748],[153.1779,-28.2475],[153.2318,-28.2651],[153.2458,-28.2458],[153.2624,-28.2468],[153.2789,-28.2336],[153.3612,-28.2483],[153.3895,-28.2349],[153.4066,-28.2104],[153.4571,-28.1805],[153.4769,-28.157],[153.5346,-28.1776],[153.5424,-28.1686],[153.5561,-28.1684],[153.5444,-28.1696],[153.5463,-28.1846],[153.5424,-28.178],[153.5281,-28.1908],[153.5088,-28.19],[153.5116,-28.2013],[153.5079,-28.1942],[153.4938,-28.2071],[153.5007,-28.2139],[153.4947,-28.2202],[153.5187,-28.2217],[153.5098,-28.2176],[153.517,-28.1936],[153.5352,-28.1917],[153.5378,-28.1838],[153.5618,-28.2085],[153.5413,-28.2434],[153.5547,-28.236],[153.5652,-28.205],[153.5499,-28.1714],[153.5565,-28.1701],[153.5714,-28.1994],[153.5686,-28.2385],[153.5863,-28.2582],[153.5714,-28.3271],[153.5807,-28.363],[153.5552,-28.4529],[153.5533,-28.5312],[153.5685,-28.5897],[153.5907,-28.6248],[153.618,-28.642],[153.6387,-28.6361],[153.6177,-28.6781],[153.6189,-28.7223],[153.5958,-28.7752],[153.6088,-28.8433],[153.592,-28.8756],[153.577,-28.8684],[153.5749,-28.8402],[153.5634,-28.8471],[153.5768,-28.8698],[153.5269,-28.8729],[153.5707,-28.8851],[153.5729,-28.8769],[153.5901,-28.8776],[153.5395,-28.9231],[153.464,-29.0187],[153.4328,-29.1008],[153.4353,-29.1131],[153.4514,-29.1189],[153.4486,-29.1334],[153.4567,-29.1402],[153.4005,-29.2014],[153.3443,-29.2966],[153.3444,-29.3444],[153.3767,-29.3656],[153.3633,-29.4216],[153.3728,-29.4251],[153.364,-29.4302],[153.3728,-29.4403],[153.3584,-29.4665],[153.3688,-29.4841],[153.3587,-29.4961],[153.3626,-29.5254],[153.3324,-29.5866],[153.3428,-29.6083],[153.3206,-29.6614],[153.334,-29.6746],[153.3052,-29.7154],[153.292,-29.7536],[153.3039,-29.7745],[153.288,-29.7983],[153.2944,-29.8251],[153.2676,-29.8652],[153.2676,-29.8857],[153.2769,-29.8931],[153.26,-29.9521],[153.1971,-30.0406],[153.2079,-30.0685],[153.1996,-30.1039],[153.2137,-30.1097],[153.1996,-30.1413],[153.2069,-30.1564],[153.167,-30.198],[153.1402,-30.2559],[153.1478,-30.2776],[153.1398,-30.2997],[153.1546,-30.3051],[153.1425,-30.3031],[153.1401,-30.3099],[153.1529,-30.3095],[153.1135,-30.3406],[153.1045,-30.377],[153.0758,-30.4106],[153.0763,-30.4319],[153.0317,-30.499],[153.0296,-30.547],[153.0171,-30.5641],[153.0101,-30.6079],[153.0204,-30.6476],[152.9975,-30.6789],[152.9885,-30.732],[153.0017,-30.7486],[152.9973,-30.7861],[153.0137,-30.8608],[153.0372,-30.8825],[153.0603,-30.8867],[153.0664,-30.8751],[153.0755,-30.8779],[153.0887,-30.9113],[153.0905,-30.9221],[153.0566,-30.9595],[153.039,-31.0032],[153.041,-31.0414],[153.0544,-31.0537],[153.0658,-31.047],[153.0647,-31.0566],[153.0553,-31.0794],[153.0066,-31.1234],[152.9774,-31.1714],[152.9764,-31.184],[152.9842,-31.1867],[152.9602,-31.2421],[152.9712,-31.2526],[152.9645,-31.3063],[152.9764,-31.3141],[152.9377,-31.3608],[152.915,-31.4094],[152.9378,-31.4758],[152.8769,-31.5296],[152.8453,-31.5729],[152.8401,-31.5894],[152.8483,-31.6016],[152.834,-31.6323],[152.8495,-31.6413],[152.8049,-31.6819],[152.7928,-31.7107],[152.8056,-31.7303],[152.7639,-31.7688],[152.7361,-31.8111],[152.7366,-31.8365],[152.7546,-31.8451],[152.691,-31.8777],[152.6088,-31.9471],[152.5659,-32.004],[152.5695,-32.01],[152.5479,-32.0281],[152.5416,-32.0464],[152.5479,-32.0736],[152.5128,-32.117],[152.5089,-32.1724],[152.5362,-32.1828],[152.5432,-32.2016],[152.5709,-32.2156],[152.5367,-32.2593],[152.5237,-32.2944],[152.5234,-32.3117],[152.5517,-32.3346],[152.5345,-32.3556],[152.5337,-32.3798],[152.5163,-32.4085],[152.5196,-32.4283],[152.5375,-32.4336],[152.5399,-32.4435],[152.4189,-32.4825],[152.3356,-32.5271],[152.3029,-32.5593],[152.285,-32.5948],[152.2313,-32.6158],[152.1957,-32.6479],[152.1867,-32.6854],[152.2087,-32.6956],[152.205,-32.7012],[152.1918,-32.7005],[152.1731,-32.6783],[152.1295,-32.6857],[152.1276,-32.6761],[152.1377,-32.671],[152.1219,-32.6578],[152.1144,-32.6811],[152.0688,-32.6896],[152.0504,-32.6765],[152.0614,-32.6696],[152.0615,-32.65],[152.0438,-32.6604],[152.0426,-32.6796],[152.0298,-32.664],[151.994,-32.6689],[151.9917,-32.6596],[151.9843,-32.6649],[151.9684,-32.6544],[151.9634,-32.6714],[151.9446,-32.6768],[151.9549,-32.6773],[151.9601,-32.6974],[151.9776,-32.6877],[151.9782,-32.7059],[151.9445,-32.7171],[151.9464,-32.7339],[151.9365,-32.7369],[151.9873,-32.7258],[151.9881,-32.7192],[151.998,-32.7275],[152.0215,-32.7204],[152.0485,-32.7287],[152.0586,-32.7162],[152.06,-32.7359],[152.0695,-32.736],[152.0595,-32.7103],[152.0638,-32.6985],[152.0911,-32.7282],[152.1021,-32.7269],[152.1036,-32.7162],[152.1458,-32.7195],[152.1618,-32.7096],[152.1762,-32.7198],[152.1875,-32.7116],[152.1868,-32.7411],[152.171,-32.7444],[152.1726,-32.7617],[152.1216,-32.7692],[152.1156,-32.7929],[152.0531,-32.7853],[151.8854,-32.8382],[151.8014,-32.8849],[151.7866,-32.9199],[151.7776,-32.9114],[151.7939,-32.8829],[151.7749,-32.9023],[151.7746,-32.8896],[151.7338,-32.8776],[151.768,-32.8949],[151.777,-32.9236],[151.7703,-32.9163],[151.7642,-32.9221],[151.7615,-32.9077],[151.7635,-32.9245],[151.7855,-32.9255],[151.804,-32.9157],[151.7377,-32.9634],[151.7269,-32.9782],[151.7287,-33.0108],[151.6689,-33.0519],[151.6611,-33.0838],[151.6403,-33.085],[151.6412,-33.0645],[151.6495,-33.0628],[151.6389,-33.0551],[151.6519,-33.0534],[151.6575,-33.0361],[151.6335,-33.0285],[151.6283,-33.0155],[151.6406,-33.004],[151.6296,-32.9939],[151.6439,-32.9748],[151.6081,-32.9661],[151.6211,-32.9763],[151.6167,-33.0057],[151.5891,-32.9893],[151.5841,-32.9961],[151.5899,-33.0045],[151.5977,-32.9972],[151.5958,-33.0106],[151.6197,-33.048],[151.5936,-33.0267],[151.5773,-33.0329],[151.6,-33.0411],[151.6001,-33.0593],[151.5859,-33.0472],[151.5808,-33.0685],[151.6112,-33.0721],[151.6138,-33.0821],[151.5492,-33.0625],[151.5503,-33.0737],[151.5257,-33.091],[151.5125,-33.09],[151.5095,-33.1025],[151.5378,-33.1046],[151.5484,-33.0886],[151.5687,-33.1143],[151.5503,-33.1146],[151.5525,-33.1209],[151.5381,-33.1147],[151.5418,-33.1261],[151.5259,-33.1307],[151.5221,-33.1241],[151.5098,-33.1377],[151.5273,-33.1391],[151.5302,-33.1608],[151.5412,-33.1438],[151.5679,-33.1753],[151.5719,-33.1548],[151.5528,-33.1457],[151.5572,-33.1316],[151.5667,-33.1363],[151.5839,-33.1229],[151.5814,-33.1027],[151.5972,-33.1616],[151.6361,-33.0693],[151.6406,-33.0959],[151.6547,-33.0939],[151.643,-33.0953],[151.642,-33.0872],[151.6657,-33.0869],[151.63,-33.1542],[151.6387,-33.1758],[151.6228,-33.188],[151.6251,-33.198],[151.5666,-33.2443],[151.5636,-33.2717],[151.579,-33.2822],[151.5253,-33.315],[151.5031,-33.3439],[151.5028,-33.3269],[151.5456,-33.2777],[151.5204,-33.2627],[151.5392,-33.2615],[151.5532,-33.2442],[151.5579,-33.252],[151.5622,-33.2373],[151.5347,-33.2394],[151.5273,-33.2203],[151.5086,-33.2227],[151.519,-33.2617],[151.4946,-33.2638],[151.465,-33.3019],[151.4416,-33.3071],[151.4686,-33.3285],[151.4418,-33.3299],[151.4488,-33.3546],[151.4741,-33.3659],[151.494,-33.3365],[151.5042,-33.3453],[151.5044,-33.3625],[151.4874,-33.3745],[151.485,-33.3986],[151.445,-33.4354],[151.4526,-33.4511],[151.4355,-33.468],[151.4469,-33.4865],[151.4279,-33.4946],[151.4172,-33.5233],[151.3643,-33.5307],[151.3454,-33.5472],[151.3359,-33.5223],[151.3634,-33.5209],[151.3476,-33.5064],[151.3503,-33.5159],[151.3125,-33.5301],[151.3097,-33.5546],[151.2739,-33.5509],[151.2587,-33.5706],[151.2459,-33.5556],[151.255,-33.5353],[151.2368,-33.5281],[151.2373,-33.5109],[151.2657,-33.4849],[151.2314,-33.5074],[151.227,-33.5305],[151.2267,-33.5219],[151.2102,-33.5212],[151.1976,-33.4952],[151.2143,-33.4764],[151.2377,-33.4756],[151.2375,-33.4538],[151.2293,-33.4563],[151.232,-33.4731],[151.2147,-33.4705],[151.1919,-33.4888],[151.1936,-33.512],[151.2047,-33.5207],[151.1994,-33.5361],[151.1819,-33.5008],[151.1598,-33.511],[151.1626,-33.4933],[151.1535,-33.4867],[151.1721,-33.4695],[151.1535,-33.455],[151.1729,-33.4381],[151.1664,-33.4267],[151.1457,-33.4479],[151.1482,-33.4612],[151.1388,-33.4697],[151.1148,-33.4638],[151.097,-33.4803],[151.0794,-33.4454],[151.0728,-33.4492],[151.0746,-33.4598],[151.0691,-33.4569],[151.0765,-33.4614],[151.0798,-33.4488],[151.0856,-33.4755],[151.1025,-33.4842],[151.1224,-33.4666],[151.1384,-33.4754],[151.1555,-33.4671],[151.1433,-33.491],[151.1313,-33.4913],[151.1553,-33.499],[151.1539,-33.5239],[151.1408,-33.5244],[151.1338,-33.5134],[151.1255,-33.5178],[151.1213,-33.5106],[151.1302,-33.5051],[151.1114,-33.507],[151.1217,-33.5215],[151.1313,-33.5193],[151.1264,-33.5311],[151.1358,-33.5223],[151.1433,-33.5298],[151.1376,-33.542],[151.1271,-33.5376],[151.117,-33.5462],[151.1283,-33.5416],[151.1388,-33.5505],[151.1449,-33.5421],[151.1515,-33.562],[151.131,-33.5679],[151.1201,-33.586],[151.1028,-33.5878],[151.1161,-33.5875],[151.1257,-33.6003],[151.1234,-33.5858],[151.1443,-33.5871],[151.1337,-33.571],[151.1622,-33.5758],[151.1518,-33.5514],[151.1696,-33.5585],[151.1489,-33.5368],[151.1701,-33.5386],[151.1642,-33.5291],[151.1751,-33.5142],[151.1985,-33.55],[151.2314,-33.539],[151.222,-33.5694],[151.2129,-33.5727],[151.2241,-33.575],[151.231,-33.5614],[151.2471,-33.5791],[151.2328,-33.594],[151.1863,-33.5921],[151.2093,-33.5941],[151.2132,-33.6078],[151.1639,-33.6259],[151.1704,-33.6291],[151.1585,-33.6411],[151.163,-33.6465],[151.1494,-33.6555],[151.1588,-33.6524],[151.1597,-33.6605],[151.1732,-33.6264],[151.2185,-33.6091],[151.2289,-33.6182],[151.2194,-33.5997],[151.2368,-33.6026],[151.2435,-33.5944],[151.2567,-33.6054],[151.2519,-33.5981],[151.2626,-33.5977],[151.2501,-33.588],[151.273,-33.589],[151.293,-33.5719],[151.3108,-33.5796],[151.2925,-33.6053],[151.3044,-33.6032],[151.3029,-33.6205],[151.2704,-33.6315],[151.2827,-33.6367],[151.2698,-33.6562],[151.2849,-33.6444],[151.3046,-33.6605],[151.301,-33.6673],[151.312,-33.6667],[151.302,-33.652],[151.3047,-33.6353],[151.3149,-33.6311],[151.3161,-33.6142],[151.3321,-33.6234],[151.316,-33.6016],[151.3228,-33.5794],[151.3353,-33.5823],[151.3253,-33.597],[151.343,-33.6245],[151.3098,-33.6863],[151.3153,-33.6964],[151.3002,-33.727],[151.3177,-33.742],[151.2914,-33.7467],[151.3032,-33.7468],[151.3025,-33.7682],[151.2879,-33.7919],[151.3074,-33.8071],[151.3014,-33.8234],[151.2856,-33.8189],[151.2911,-33.8081],[151.2826,-33.8092],[151.2818,-33.7987],[151.2658,-33.7984],[151.2751,-33.81],[151.2611,-33.8179],[151.2505,-33.8003],[151.2351,-33.8034],[151.2308,-33.7727],[151.2247,-33.7838],[151.2044,-33.7725],[151.2134,-33.7843],[151.2325,-33.7875],[151.2147,-33.7899],[151.2309,-33.7957],[151.2175,-33.8054],[151.2306,-33.8055],[151.2321,-33.8137],[151.2194,-33.8188],[151.239,-33.817],[151.2459,-33.8033],[151.2525,-33.8272],[151.2689,-33.8271],[151.2462,-33.8427],[151.2467,-33.8534],[151.2325,-33.8363],[151.2329,-33.8487],[151.2152,-33.8411],[151.2189,-33.8528],[151.1991,-33.8412],[151.1929,-33.8477],[151.189,-33.8335],[151.1811,-33.8423],[151.1816,-33.8295],[151.169,-33.8361]]]}}]}